{
  "type": "FeatureCollection",
  "features": [
    {
      "type": "Feature",
      "properties": {
        "norad_id": 44873,
        "name": "CSG-1",
        "group": "resource",
        "lat": 63.58231358332332,
        "lon": 1.2660246372940174,
        "alt_km": 615.4466319325456,
        "timestamp": "2025-12-09T16:56:36.237928+00:00",
        "meta_object_name": "CSG-1",
        "meta_object_id": "2019-092A",
        "meta_epoch": "2025-12-09T11:33:52.622784",
        "meta_mean_motion": 14.82157864,
        "meta_eccentricity": 0.0001457,
        "meta_inclination": 97.8811,
        "meta_ra_of_asc_node": 164.8551,
        "meta_arg_of_pericenter": 85.4248,
        "meta_mean_anomaly": 274.7132,
        "meta_ephemeris_type": 0,
        "meta_classification_type": "U",
        "meta_norad_cat_id": 44873,
        "meta_element_set_no": 999,
        "meta_rev_at_epoch": 32337,
        "meta_bstar": 0.00015588,
        "meta_mean_motion_dot": 1.189e-05,
        "meta_mean_motion_ddot": 0,
        "tle_line1": "1 44873U 19092A   25343.48185906  .00001189  00000+0  15588-3 0  9993",
        "tle_line2": "2 44873  97.8811 164.8551 0001457  85.4248 274.7132 14.82157864323370"
      },
      "geometry": {
        "type": "Point",
        "coordinates": [
          1.2660246372940174,
          63.58231358332332
        ]
      }
    },
    {
      "type": "Feature",
      "properties": {
        "norad_id": 46277,
        "name": "NEMO-HD",
        "group": "resource",
        "lat": 0.24648867799092827,
        "lon": 42.81109692302709,
        "alt_km": 447.8023971414932,
        "timestamp": "2025-12-09T16:56:36.237938+00:00",
        "meta_object_name": "NEMO-HD",
        "meta_object_id": "2020-061F",
        "meta_epoch": "2025-12-09T12:15:52.651584",
        "meta_mean_motion": 15.4022141,
        "meta_eccentricity": 0.0002075,
        "meta_inclination": 97.2211,
        "meta_ra_of_asc_node": 42.6499,
        "meta_arg_of_pericenter": 60.2486,
        "meta_mean_anomaly": 299.8967,
        "meta_ephemeris_type": 0,
        "meta_classification_type": "U",
        "meta_norad_cat_id": 46277,
        "meta_element_set_no": 999,
        "meta_rev_at_epoch": 29274,
        "meta_bstar": 0.00036765,
        "meta_mean_motion_dot": 0.00014705,
        "meta_mean_motion_ddot": 0,
        "tle_line1": "1 46277U 20061F   25343.51102606  .00014705  00000+0  36765-3 0  9999",
        "tle_line2": "2 46277  97.2211  42.6499 0002075  60.2486 299.8967 15.40221410292748"
      },
      "geometry": {
        "type": "Point",
        "coordinates": [
          42.81109692302709,
          0.24648867799092827
        ]
      }
    },
    {
      "type": "Feature",
      "properties": {
        "norad_id": 46984,
        "name": "SENTINEL-6A",
        "group": "resource",
        "lat": 26.50738041952279,
        "lon": -24.20328279101466,
        "alt_km": 1338.5749181387364,
        "timestamp": "2025-12-09T16:56:36.237949+00:00",
        "meta_object_name": "SENTINEL-6A",
        "meta_object_id": "2020-086A",
        "meta_epoch": "2025-12-09T10:32:14.332992",
        "meta_mean_motion": 12.80930517,
        "meta_eccentricity": 0.0007737,
        "meta_inclination": 66.0391,
        "meta_ra_of_asc_node": 169.164,
        "meta_arg_of_pericenter": 269.2403,
        "meta_mean_anomaly": 90.7726,
        "meta_ephemeris_type": 0,
        "meta_classification_type": "U",
        "meta_norad_cat_id": 46984,
        "meta_element_set_no": 999,
        "meta_rev_at_epoch": 23602,
        "meta_bstar": 6.2322e-05,
        "meta_mean_motion_dot": -4.7e-07,
        "meta_mean_motion_ddot": 0,
        "tle_line1": "1 46984U 20086A   25343.43905478 -.00000047  00000+0  62322-4 0  9994",
        "tle_line2": "2 46984  66.0391 169.1640 0007737 269.2403  90.7726 12.80930517236025"
      },
      "geometry": {
        "type": "Point",
        "coordinates": [
          -24.20328279101466,
          26.50738041952279
        ]
      }
    },
    {
      "type": "Feature",
      "properties": {
        "norad_id": 48079,
        "name": "GAOFEN-12 02",
        "group": "resource",
        "lat": 31.322883134288947,
        "lon": -27.173230364722222,
        "alt_km": 624.8620047142513,
        "timestamp": "2025-12-09T16:56:36.237959+00:00",
        "meta_object_name": "GAOFEN-12 02",
        "meta_object_id": "2021-026A",
        "meta_epoch": "2025-12-09T11:56:06.803808",
        "meta_mean_motion": 14.80669576,
        "meta_eccentricity": 0.0003469,
        "meta_inclination": 97.985,
        "meta_ra_of_asc_node": 337.5194,
        "meta_arg_of_pericenter": 107.4181,
        "meta_mean_anomaly": 252.7411,
        "meta_ephemeris_type": 0,
        "meta_classification_type": "U",
        "meta_norad_cat_id": 48079,
        "meta_element_set_no": 999,
        "meta_rev_at_epoch": 25369,
        "meta_bstar": 0.00013428,
        "meta_mean_motion_dot": 9.79e-06,
        "meta_mean_motion_ddot": 0,
        "tle_line1": "1 48079U 21026A   25343.49730097  .00000979  00000+0  13428-3 0  9990",
        "tle_line2": "2 48079  97.9850 337.5194 0003469 107.4181 252.7411 14.80669576253693"
      },
      "geometry": {
        "type": "Point",
        "coordinates": [
          -27.173230364722222,
          31.322883134288947
        ]
      }
    },
    {
      "type": "Feature",
      "properties": {
        "norad_id": 48268,
        "name": "PLEIADES NEO 3",
        "group": "resource",
        "lat": 81.8246332410511,
        "lon": -18.808790321445926,
        "alt_km": 615.6623770635897,
        "timestamp": "2025-12-09T16:56:36.237969+00:00",
        "meta_object_name": "PLEIADES NEO 3",
        "meta_object_id": "2021-034A",
        "meta_epoch": "2025-12-08T17:51:26.688096",
        "meta_mean_motion": 14.81674889,
        "meta_eccentricity": 0.00013213,
        "meta_inclination": 97.8951,
        "meta_ra_of_asc_node": 55.2426,
        "meta_arg_of_pericenter": 96.866,
        "meta_mean_anomaly": 263.2703,
        "meta_ephemeris_type": 0,
        "meta_classification_type": "U",
        "meta_norad_cat_id": 48268,
        "meta_element_set_no": 999,
        "meta_rev_at_epoch": 24945,
        "meta_bstar": 2.6372942e-05,
        "meta_mean_motion_dot": 1.55e-06,
        "meta_mean_motion_ddot": 0,
        "tle_line1": "1 48268U 21034A   25342.74405889  .00000155  00000+0  26373-4 0  9994",
        "tle_line2": "2 48268  97.8951  55.2426 0001321  96.8660 263.2703 14.81674889249458"
      },
      "geometry": {
        "type": "Point",
        "coordinates": [
          -18.808790321445926,
          81.8246332410511
        ]
      }
    },
    {
      "type": "Feature",
      "properties": {
        "norad_id": 49070,
        "name": "PLEIADES NEO 4",
        "group": "resource",
        "lat": -81.84685230367226,
        "lon": 160.59304681298752,
        "alt_km": 632.3405456948622,
        "timestamp": "2025-12-09T16:56:36.237982+00:00",
        "meta_object_name": "PLEIADES NEO 4",
        "meta_object_id": "2021-073E",
        "meta_epoch": "2025-12-09T12:29:45.667680",
        "meta_mean_motion": 14.81679391,
        "meta_eccentricity": 0.0001366,
        "meta_inclination": 97.8948,
        "meta_ra_of_asc_node": 56.0038,
        "meta_arg_of_pericenter": 89.6185,
        "meta_mean_anomaly": 270.5184,
        "meta_ephemeris_type": 0,
        "meta_classification_type": "U",
        "meta_norad_cat_id": 49070,
        "meta_element_set_no": 999,
        "meta_rev_at_epoch": 23328,
        "meta_bstar": 7.3457e-05,
        "meta_mean_motion_dot": 5.26e-06,
        "meta_mean_motion_ddot": 0,
        "tle_line1": "1 49070U 21073E   25343.52066745  .00000526  00000+0  73457-4 0  9997",
        "tle_line2": "2 49070  97.8948  56.0038 0001366  89.6185 270.5184 14.81679391233286"
      },
      "geometry": {
        "type": "Point",
        "coordinates": [
          160.59304681298752,
          -81.84685230367226
        ]
      }
    },
    {
      "type": "Feature",
      "properties": {
        "norad_id": 49260,
        "name": "LANDSAT 9",
        "group": "resource",
        "lat": -12.475357887745353,
        "lon": -129.96944242042576,
        "alt_km": 707.0416507929267,
        "timestamp": "2025-12-09T16:56:36.237992+00:00",
        "meta_object_name": "LANDSAT 9",
        "meta_object_id": "2021-088A",
        "meta_epoch": "2025-12-09T11:07:07.368672",
        "meta_mean_motion": 14.57125619,
        "meta_eccentricity": 0.0001116,
        "meta_inclination": 98.2098,
        "meta_ra_of_asc_node": 51.6218,
        "meta_arg_of_pericenter": 94.4742,
        "meta_mean_anomaly": 265.6584,
        "meta_ephemeris_type": 0,
        "meta_classification_type": "U",
        "meta_norad_cat_id": 49260,
        "meta_element_set_no": 999,
        "meta_rev_at_epoch": 22337,
        "meta_bstar": 0.00019721,
        "meta_mean_motion_dot": 8.44e-06,
        "meta_mean_motion_ddot": 0,
        "tle_line1": "1 49260U 21088A   25343.46327973  .00000844  00000+0  19721-3 0  9996",
        "tle_line2": "2 49260  98.2098  51.6218 0001116  94.4742 265.6584 14.57125619223375"
      },
      "geometry": {
        "type": "Point",
        "coordinates": [
          -129.96944242042576,
          -12.475357887745353
        ]
      }
    }
  ]
}